STARLINK-6152           
1 57121U 23090W   26055.24026043 -.00000411  00000+0 -15358-4 0  9992
2 57121  43.0042 347.4367 0001076 274.3951  85.6768 15.02534705148207
STARLINK-6149           
1 57122U 23090X   26055.17933296 -.00004459  00000+0 -31516-3 0  9991
2 57122  43.0029 347.8412 0001233 278.6499  81.4204 15.02545101148387
STARLINK-6154           
1 57123U 23090Y   26055.17045532 -.00000798  00000+0 -44015-4 0  9990
2 57123  43.0052 347.7735 0001202 267.8005  92.2699 15.02530027148198
STARLINK-6146           
1 57124U 23090Z   26055.24359522 -.00000965  00000+0 -56413-4 0  9997
2 57124  43.0023 347.4625 0001065 272.0258  88.0462 15.02531778148394
STARLINK-6100           
1 57125U 23090AA  26055.48877325 -.00001267  00000+0 -78732-4 0  9994
2 57125  43.0027 333.6993 0000587 267.6626  92.4149 15.02536462148386
STARLINK-6167           
1 57126U 23090AB  26055.24248617 -.00001270  00000+0 -78949-4 0  9999
2 57126  43.0033 347.4532 0001085 274.6168  85.4550 15.02528672148392
STARLINK-6165           
1 57127U 23090AC  26055.23248964  .00001657  00000+0  13776-3 0  9997
2 57127  43.0076 347.3797 0001426 267.2633  92.8046 15.02531361148207
STARLINK-6163           
1 57128U 23090AD  26055.50506411  .00000472  00000+0  50014-4 0  9993
2 57128  43.0038 345.9826 0001152 268.4771  91.5939 15.02531547148242
STARLINK-6170           
1 57129U 23090AE  26055.17082949 -.00000080  00000+0  91521-5 0  9997
2 57129  43.0054 335.6179 0001184 270.7154  89.3553 15.02530659148334
STARLINK-6172           
1 57130U 23090AF  26055.49951369 -.00000299  00000+0 -70730-5 0  9997
2 57130  43.0042 345.9405 0001043 276.6987  83.3737 15.02534294148249
STARLINK-6162           
1 57131U 23090AG  26055.49877770 -.00000120  00000+0  62085-5 0  9997
2 57131  43.0055 333.7779 0001146 266.7651  93.3061 15.02533355148388
STARLINK-6128           
1 57132U 23090AH  26055.22694634 -.00000271  00000+0 -49782-5 0  9992
2 57132  43.0036 347.3348 0000972 277.3794  82.6937 15.02530276148206
STARLINK-6143           
1 57133U 23090AJ  26055.15306991  .00000133  00000+0  24939-4 0  9992
2 57133  43.0053 335.4841 0001189 270.3302  89.7404 15.02531712148338
STARLINK-6133           
1 57134U 23090AK  26055.16750215 -.00000713  00000+0 -37726-4 0  9990
2 57134  43.0045 335.5927 0001300 267.4615  92.6078 15.02530347148338
STARLINK-6127           
1 57135U 23090AL  26055.47546260 -.00003200  00000+0 -22181-3 0  9990
2 57135  43.0034 333.6019 0000992 268.9361  91.1367 15.02551295148383
STARLINK-6112           
1 57136U 23090AM  26055.49655031  .00000057  00000+0  19310-4 0  9996
2 57136  43.0035 333.7564 0000989 266.8517  93.2212 15.02540611148402
