[{"OBJECT_NAME":"STARLINK-6152","OBJECT_ID":"2023-090W","EPOCH":"2026-02-24T05:45:58.501152","MEAN_MOTION":15.02534705,"ECCENTRICITY":0.0001076,"INCLINATION":43.0042,"RA_OF_ASC_NODE":347.4367,"ARG_OF_PERICENTER":274.3951,"MEAN_ANOMALY":85.6768,"EPHEMERIS_TYPE":0,"CLASSIFICATION_TYPE":"U","NORAD_CAT_ID":57121,"ELEMENT_SET_NO":999,"REV_AT_EPOCH":14820,"BSTAR":-1.5358e-5,"MEAN_MOTION_DOT":-4.11e-6,"MEAN_MOTION_DDOT":0},{"OBJECT_NAME":"STARLINK-6149","OBJECT_ID":"2023-090X","EPOCH":"2026-02-24T04:18:14.367744","MEAN_MOTION":15.02545101,"ECCENTRICITY":0.00012335,"INCLINATION":43.0029,"RA_OF_ASC_NODE":347.8412,"ARG_OF_PERICENTER":278.6499,"MEAN_ANOMALY":81.4204,"EPHEMERIS_TYPE":0,"CLASSIFICATION_TYPE":"U","NORAD_CAT_ID":57122,"ELEMENT_SET_NO":999,"REV_AT_EPOCH":14838,"BSTAR":-0.00031516334,"MEAN_MOTION_DOT":-4.459e-5,"MEAN_MOTION_DDOT":0},{"OBJECT_NAME":"STARLINK-6154","OBJECT_ID":"2023-090Y","EPOCH":"2026-02-24T04:05:27.339648","MEAN_MOTION":15.02530027,"ECCENTRICITY":0.00012029,"INCLINATION":43.0052,"RA_OF_ASC_NODE":347.7735,"ARG_OF_PERICENTER":267.8005,"MEAN_ANOMALY":92.2699,"EPHEMERIS_TYPE":0,"CLASSIFICATION_TYPE":"U","NORAD_CAT_ID":57123,"ELEMENT_SET_NO":999,"REV_AT_EPOCH":14819,"BSTAR":-4.401518e-5,"MEAN_MOTION_DOT":-7.98e-6,"MEAN_MOTION_DDOT":0},{"OBJECT_NAME":"STARLINK-6146","OBJECT_ID":"2023-090Z","EPOCH":"2026-02-24T05:50:46.627008","MEAN_MOTION":15.02531778,"ECCENTRICITY":0.0001065,"INCLINATION":43.0023,"RA_OF_ASC_NODE":347.4625,"ARG_OF_PERICENTER":272.0258,"MEAN_ANOMALY":88.0462,"EPHEMERIS_TYPE":0,"CLASSIFICATION_TYPE":"U","NORAD_CAT_ID":57124,"ELEMENT_SET_NO":999,"REV_AT_EPOCH":14839,"BSTAR":-5.6413e-5,"MEAN_MOTION_DOT":-9.65e-6,"MEAN_MOTION_DDOT":0},{"OBJECT_NAME":"STARLINK-6100","OBJECT_ID":"2023-090AA","EPOCH":"2026-02-24T11:43:50.008800","MEAN_MOTION":15.02536462,"ECCENTRICITY":5.87e-5,"INCLINATION":43.0027,"RA_OF_ASC_NODE":333.6993,"ARG_OF_PERICENTER":267.6626,"MEAN_ANOMALY":92.4149,"EPHEMERIS_TYPE":0,"CLASSIFICATION_TYPE":"U","NORAD_CAT_ID":57125,"ELEMENT_SET_NO":999,"REV_AT_EPOCH":14838,"BSTAR":-7.8732e-5,"MEAN_MOTION_DOT":-1.267e-5,"MEAN_MOTION_DDOT":0},{"OBJECT_NAME":"STARLINK-6167","OBJECT_ID":"2023-090AB","EPOCH":"2026-02-24T05:49:10.805088","MEAN_MOTION":15.02528672,"ECCENTRICITY":0.0001085,"INCLINATION":43.0033,"RA_OF_ASC_NODE":347.4532,"ARG_OF_PERICENTER":274.6168,"MEAN_ANOMALY":85.455,"EPHEMERIS_TYPE":0,"CLASSIFICATION_TYPE":"U","NORAD_CAT_ID":57126,"ELEMENT_SET_NO":999,"REV_AT_EPOCH":14839,"BSTAR":-7.8949e-5,"MEAN_MOTION_DOT":-1.27e-5,"MEAN_MOTION_DDOT":0},{"OBJECT_NAME":"STARLINK-6165","OBJECT_ID":"2023-090AC","EPOCH":"2026-02-24T05:34:47.104896","MEAN_MOTION":15.02531361,"ECCENTRICITY":0.0001426,"INCLINATION":43.0076,"RA_OF_ASC_NODE":347.3797,"ARG_OF_PERICENTER":267.2633,"MEAN_ANOMALY":92.8046,"EPHEMERIS_TYPE":0,"CLASSIFICATION_TYPE":"U","NORAD_CAT_ID":57127,"ELEMENT_SET_NO":999,"REV_AT_EPOCH":14820,"BSTAR":0.00013776,"MEAN_MOTION_DOT":1.657e-5,"MEAN_MOTION_DDOT":0},{"OBJECT_NAME":"STARLINK-6163","OBJECT_ID":"2023-090AD","EPOCH":"2026-02-24T12:07:17.539104","MEAN_MOTION":15.02531547,"ECCENTRICITY":0.0001152,"INCLINATION":43.0038,"RA_OF_ASC_NODE":345.9826,"ARG_OF_PERICENTER":268.4771,"MEAN_ANOMALY":91.5939,"EPHEMERIS_TYPE":0,"CLASSIFICATION_TYPE":"U","NORAD_CAT_ID":57128,"ELEMENT_SET_NO":999,"REV_AT_EPOCH":14824,"BSTAR":5.0014e-5,"MEAN_MOTION_DOT":4.72e-6,"MEAN_MOTION_DDOT":0},{"OBJECT_NAME":"STARLINK-6170","OBJECT_ID":"2023-090AE","EPOCH":"2026-02-24T04:05:59.667936","MEAN_MOTION":15.02530659,"ECCENTRICITY":0.00011842,"INCLINATION":43.0054,"RA_OF_ASC_NODE":335.6179,"ARG_OF_PERICENTER":270.7154,"MEAN_ANOMALY":89.3553,"EPHEMERIS_TYPE":0,"CLASSIFICATION_TYPE":"U","NORAD_CAT_ID":57129,"ELEMENT_SET_NO":999,"REV_AT_EPOCH":14833,"BSTAR":9.152138e-6,"MEAN_MOTION_DOT":-8.0e-7,"MEAN_MOTION_DDOT":0},{"OBJECT_NAME":"STARLINK-6172","OBJECT_ID":"2023-090AF","EPOCH":"2026-02-24T11:59:17.982816","MEAN_MOTION":15.02534294,"ECCENTRICITY":0.0001043,"INCLINATION":43.0042,"RA_OF_ASC_NODE":345.9405,"ARG_OF_PERICENTER":276.6987,"MEAN_ANOMALY":83.3737,"EPHEMERIS_TYPE":0,"CLASSIFICATION_TYPE":"U","NORAD_CAT_ID":57130,"ELEMENT_SET_NO":999,"REV_AT_EPOCH":14824,"BSTAR":-7.073e-6,"MEAN_MOTION_DOT":-2.99e-6,"MEAN_MOTION_DDOT":0},{"OBJECT_NAME":"STARLINK-6162","OBJECT_ID":"2023-090AG","EPOCH":"2026-02-24T11:58:14.393280","MEAN_MOTION":15.02533355,"ECCENTRICITY":0.0001146,"INCLINATION":43.0055,"RA_OF_ASC_NODE":333.7779,"ARG_OF_PERICENTER":266.7651,"MEAN_ANOMALY":93.3061,"EPHEMERIS_TYPE":0,"CLASSIFICATION_TYPE":"U","NORAD_CAT_ID":57131,"ELEMENT_SET_NO":999,"REV_AT_EPOCH":14838,"BSTAR":6.2085e-6,"MEAN_MOTION_DOT":-1.2e-6,"MEAN_MOTION_DDOT":0},{"OBJECT_NAME":"STARLINK-6128","OBJECT_ID":"2023-090AH","EPOCH":"2026-02-24T05:26:48.163776","MEAN_MOTION":15.02530276,"ECCENTRICITY":9.72e-5,"INCLINATION":43.0036,"RA_OF_ASC_NODE":347.3348,"ARG_OF_PERICENTER":277.3794,"MEAN_ANOMALY":82.6937,"EPHEMERIS_TYPE":0,"CLASSIFICATION_TYPE":"U","NORAD_CAT_ID":57132,"ELEMENT_SET_NO":999,"REV_AT_EPOCH":14820,"BSTAR":-4.9782e-6,"MEAN_MOTION_DOT":-2.71e-6,"MEAN_MOTION_DDOT":0},{"OBJECT_NAME":"STARLINK-6143","OBJECT_ID":"2023-090AJ","EPOCH":"2026-02-24T03:40:25.240224","MEAN_MOTION":15.02531712,"ECCENTRICITY":0.00011892,"INCLINATION":43.0053,"RA_OF_ASC_NODE":335.4841,"ARG_OF_PERICENTER":270.3302,"MEAN_ANOMALY":89.7404,"EPHEMERIS_TYPE":0,"CLASSIFICATION_TYPE":"U","NORAD_CAT_ID":57133,"ELEMENT_SET_NO":999,"REV_AT_EPOCH":14833,"BSTAR":2.4938959e-5,"MEAN_MOTION_DOT":1.33e-6,"MEAN_MOTION_DDOT":0},{"OBJECT_NAME":"STARLINK-6133","OBJECT_ID":"2023-090AK","EPOCH":"2026-02-24T04:01:12.185760","MEAN_MOTION":15.02530347,"ECCENTRICITY":0.00013,"INCLINATION":43.0045,"RA_OF_ASC_NODE":335.5927,"ARG_OF_PERICENTER":267.4615,"MEAN_ANOMALY":92.6078,"EPHEMERIS_TYPE":0,"CLASSIFICATION_TYPE":"U","NORAD_CAT_ID":57134,"ELEMENT_SET_NO":999,"REV_AT_EPOCH":14833,"BSTAR":-3.7726027e-5,"MEAN_MOTION_DOT":-7.13e-6,"MEAN_MOTION_DDOT":0},{"OBJECT_NAME":"STARLINK-6127","OBJECT_ID":"2023-090AL","EPOCH":"2026-02-24T11:24:39.968640","MEAN_MOTION":15.02551295,"ECCENTRICITY":9.92e-5,"INCLINATION":43.0034,"RA_OF_ASC_NODE":333.6019,"ARG_OF_PERICENTER":268.9361,"MEAN_ANOMALY":91.1367,"EPHEMERIS_TYPE":0,"CLASSIFICATION_TYPE":"U","NORAD_CAT_ID":57135,"ELEMENT_SET_NO":999,"REV_AT_EPOCH":14838,"BSTAR":-0.00022181,"MEAN_MOTION_DOT":-3.2e-5,"MEAN_MOTION_DDOT":0},{"OBJECT_NAME":"STARLINK-6112","OBJECT_ID":"2023-090AM","EPOCH":"2026-02-24T11:55:01.946784","MEAN_MOTION":15.02540611,"ECCENTRICITY":9.89e-5,"INCLINATION":43.0035,"RA_OF_ASC_NODE":333.7564,"ARG_OF_PERICENTER":266.8517,"MEAN_ANOMALY":93.2212,"EPHEMERIS_TYPE":0,"CLASSIFICATION_TYPE":"U","NORAD_CAT_ID":57136,"ELEMENT_SET_NO":999,"REV_AT_EPOCH":14840,"BSTAR":1.931e-5,"MEAN_MOTION_DOT":5.7e-7,"MEAN_MOTION_DDOT":0}]
